{
  "type": "FeatureCollection",
  "features": [
    {
      "type": "Feature",
      "properties": {
        "norad_id": 35583,
        "name": "COSMOS 2251 DEB",
        "group": "cosmos-2251-debris",
        "lat": -63.38793404195929,
        "lon": 160.70741326425116,
        "alt_km": 966.5239611280358,
        "timestamp": "2025-12-22T16:55:17.861117+00:00",
        "meta_object_name": "COSMOS 2251 DEB",
        "meta_object_id": "1993-036AMA",
        "meta_epoch": "2025-12-22T06:38:14.014176",
        "meta_mean_motion": 13.55351852,
        "meta_eccentricity": 0.03850357,
        "meta_inclination": 73.9158,
        "meta_ra_of_asc_node": 196.56,
        "meta_arg_of_pericenter": 219.1539,
        "meta_mean_anomaly": 138.1132,
        "meta_ephemeris_type": 0,
        "meta_classification_type": "U",
        "meta_norad_cat_id": 35583,
        "meta_element_set_no": 999,
        "meta_rev_at_epoch": 82541,
        "meta_bstar": 0.00079490953,
        "meta_mean_motion_dot": 8.63e-06,
        "meta_mean_motion_ddot": 0,
        "tle_line1": "1 35583U 93036AMA 25356.27655109  .00000863  00000+0  79491-3 0  9990",
        "tle_line2": "2 35583  73.9158 196.5600 0385035 219.1539 138.1132 13.55351852825417"
      },
      "geometry": {
        "type": "Point",
        "coordinates": [
          160.70741326425116,
          -63.38793404195929
        ]
      }
    },
    {
      "type": "Feature",
      "properties": {
        "norad_id": 35585,
        "name": "COSMOS 2251 DEB",
        "group": "cosmos-2251-debris",
        "lat": -52.38060025030014,
        "lon": 173.6746535363401,
        "alt_km": 760.2812395967458,
        "timestamp": "2025-12-22T16:55:17.861128+00:00",
        "meta_object_name": "COSMOS 2251 DEB",
        "meta_object_id": "1993-036AMC",
        "meta_epoch": "2025-12-21T09:07:18.442848",
        "meta_mean_motion": 13.75269672,
        "meta_eccentricity": 0.03103986,
        "meta_inclination": 73.9717,
        "meta_ra_of_asc_node": 333.9847,
        "meta_arg_of_pericenter": 244.5384,
        "meta_mean_anomaly": 273.7703,
        "meta_ephemeris_type": 0,
        "meta_classification_type": "U",
        "meta_norad_cat_id": 35585,
        "meta_element_set_no": 999,
        "meta_rev_at_epoch": 64182,
        "meta_bstar": 0.00073727274,
        "meta_mean_motion_dot": 9.8e-06,
        "meta_mean_motion_ddot": 0,
        "tle_line1": "1 35585U 93036AMC 25355.38007457  .00000980  00000+0  73727-3 0  9996",
        "tle_line2": "2 35585  73.9717 333.9847 0310398 244.5384 273.7703 13.75269672641821"
      },
      "geometry": {
        "type": "Point",
        "coordinates": [
          173.6746535363401,
          -52.38060025030014
        ]
      }
    },
    {
      "type": "Feature",
      "properties": {
        "norad_id": 35586,
        "name": "COSMOS 2251 DEB",
        "group": "cosmos-2251-debris",
        "lat": -42.29835067273472,
        "lon": -88.59716201734726,
        "alt_km": 1343.5255418292863,
        "timestamp": "2025-12-22T16:55:17.861138+00:00",
        "meta_object_name": "COSMOS 2251 DEB",
        "meta_object_id": "1993-036AMD",
        "meta_epoch": "2025-12-18T14:35:36.885984",
        "meta_mean_motion": 13.5208875,
        "meta_eccentricity": 0.04044314,
        "meta_inclination": 74.0204,
        "meta_ra_of_asc_node": 293.076,
        "meta_arg_of_pericenter": 167.1463,
        "meta_mean_anomaly": 11.7227,
        "meta_ephemeris_type": 0,
        "meta_classification_type": "U",
        "meta_norad_cat_id": 35586,
        "meta_element_set_no": 999,
        "meta_rev_at_epoch": 60461,
        "meta_bstar": 0.00023975249,
        "meta_mean_motion_dot": 2.44e-06,
        "meta_mean_motion_ddot": 0,
        "tle_line1": "1 35586U 93036AMD 25352.60806581  .00000244  00000+0  23975-3 0  9997",
        "tle_line2": "2 35586  74.0204 293.0760 0404431 167.1463  11.7227 13.52088750604613"
      },
      "geometry": {
        "type": "Point",
        "coordinates": [
          -88.59716201734726,
          -42.29835067273472
        ]
      }
    },
    {
      "type": "Feature",
      "properties": {
        "norad_id": 35587,
        "name": "COSMOS 2251 DEB",
        "group": "cosmos-2251-debris",
        "lat": 35.854557846147515,
        "lon": -152.94670623995995,
        "alt_km": 642.6612400079657,
        "timestamp": "2025-12-22T16:55:17.861149+00:00",
        "meta_object_name": "COSMOS 2251 DEB",
        "meta_object_id": "1993-036AME",
        "meta_epoch": "2025-12-21T20:41:18.597984",
        "meta_mean_motion": 14.71550847,
        "meta_eccentricity": 0.01023219,
        "meta_inclination": 74.0051,
        "meta_ra_of_asc_node": 40.6582,
        "meta_arg_of_pericenter": 226.293,
        "meta_mean_anomaly": 132.9734,
        "meta_ephemeris_type": 0,
        "meta_classification_type": "U",
        "meta_norad_cat_id": 35587,
        "meta_element_set_no": 999,
        "meta_rev_at_epoch": 66480,
        "meta_bstar": 0.00023978572,
        "meta_mean_motion_dot": 1.58e-05,
        "meta_mean_motion_ddot": 0,
        "tle_line1": "1 35587U 93036AME 25355.86202081  .00001580  00000+0  23979-3 0  9992",
        "tle_line2": "2 35587  74.0051  40.6582 0102321 226.2930 132.9734 14.71550847664800"
      },
      "geometry": {
        "type": "Point",
        "coordinates": [
          -152.94670623995995,
          35.854557846147515
        ]
      }
    },
    {
      "type": "Feature",
      "properties": {
        "norad_id": 35593,
        "name": "COSMOS 2251 DEB",
        "group": "cosmos-2251-debris",
        "lat": 64.39926706047197,
        "lon": -52.942745656093784,
        "alt_km": 867.9750214698424,
        "timestamp": "2025-12-22T16:55:17.861159+00:00",
        "meta_object_name": "COSMOS 2251 DEB",
        "meta_object_id": "1993-036AML",
        "meta_epoch": "2025-12-22T03:07:10.854336",
        "meta_mean_motion": 14.25629866,
        "meta_eccentricity": 0.01050344,
        "meta_inclination": 74.0862,
        "meta_ra_of_asc_node": 271.5473,
        "meta_arg_of_pericenter": 275.9355,
        "meta_mean_anomaly": 82.9829,
        "meta_ephemeris_type": 0,
        "meta_classification_type": "U",
        "meta_norad_cat_id": 35593,
        "meta_element_set_no": 999,
        "meta_rev_at_epoch": 85199,
        "meta_bstar": 0.00065796608,
        "meta_mean_motion_dot": 1.626e-05,
        "meta_mean_motion_ddot": 0,
        "tle_line1": "1 35593U 93036AML 25356.12998674  .00001626  00000+0  65797-3 0  9994",
        "tle_line2": "2 35593  74.0862 271.5473 0105034 275.9355  82.9829 14.25629866851991"
      },
      "geometry": {
        "type": "Point",
        "coordinates": [
          -52.942745656093784,
          64.39926706047197
        ]
      }
    },
    {
      "type": "Feature",
      "properties": {
        "norad_id": 35594,
        "name": "COSMOS 2251 DEB",
        "group": "cosmos-2251-debris",
        "lat": 73.76231276122114,
        "lon": -179.80416610556995,
        "alt_km": 602.1884952233931,
        "timestamp": "2025-12-22T16:55:17.861169+00:00",
        "meta_object_name": "COSMOS 2251 DEB",
        "meta_object_id": "1993-036AMM",
        "meta_epoch": "2025-12-21T13:05:05.165088",
        "meta_mean_motion": 14.8817141,
        "meta_eccentricity": 0.0029279,
        "meta_inclination": 73.8068,
        "meta_ra_of_asc_node": 88.7269,
        "meta_arg_of_pericenter": 201.0189,
        "meta_mean_anomaly": 158.9789,
        "meta_ephemeris_type": 0,
        "meta_classification_type": "U",
        "meta_norad_cat_id": 35594,
        "meta_element_set_no": 999,
        "meta_rev_at_epoch": 88316,
        "meta_bstar": 0.0013268,
        "meta_mean_motion_dot": 0.00012311,
        "meta_mean_motion_ddot": 0,
        "tle_line1": "1 35594U 93036AMM 25355.54519867  .00012311  00000+0  13268-2 0  9991",
        "tle_line2": "2 35594  73.8068  88.7269 0029279 201.0189 158.9789 14.88171410883168"
      },
      "geometry": {
        "type": "Point",
        "coordinates": [
          -179.80416610556995,
          73.76231276122114
        ]
      }
    },
    {
      "type": "Feature",
      "properties": {
        "norad_id": 35602,
        "name": "COSMOS 2251 DEB",
        "group": "cosmos-2251-debris",
        "lat": 73.91009928302267,
        "lon": -103.67374102720338,
        "alt_km": 493.1438576710689,
        "timestamp": "2025-12-22T16:55:17.861180+00:00",
        "meta_object_name": "COSMOS 2251 DEB",
        "meta_object_id": "1993-036AMV",
        "meta_epoch": "2025-12-19T12:02:08.754144",
        "meta_mean_motion": 15.3532305,
        "meta_eccentricity": 0.0089059,
        "meta_inclination": 73.9924,
        "meta_ra_of_asc_node": 167.6664,
        "meta_arg_of_pericenter": 231.9555,
        "meta_mean_anomaly": 160.7824,
        "meta_ephemeris_type": 0,
        "meta_classification_type": "U",
        "meta_norad_cat_id": 35602,
        "meta_element_set_no": 999,
        "meta_rev_at_epoch": 90195,
        "meta_bstar": 0.00042337,
        "meta_mean_motion_dot": 0.00016543,
        "meta_mean_motion_ddot": 0,
        "tle_line1": "1 35602U 93036AMV 25353.50149021  .00016543  00000+0  42337-3 0  9997",
        "tle_line2": "2 35602  73.9924 167.6664 0089059 231.9555 160.7824 15.35323050901958"
      },
      "geometry": {
        "type": "Point",
        "coordinates": [
          -103.67374102720338,
          73.91009928302267
        ]
      }
    }
  ]
}